NORAD_CAT_ID,OBJECT_NAME,OBJECT_TYPE,EPOCH,MEAN_MOTION,ECCENTRICITY,INCLINATION,RA_OF_ASC_NODE,ARG_OF_PERICENTER,MEAN_ANOMALY,BSTAR,MEAN_MOTION_DOT,MEAN_MOTION_DDOT,TLE_LINE0,TLE_LINE1,TLE_LINE2,SEMIMAJOR_AXIS,PERIOD,APOGEE,PERIGEE,DECAYED
53527.0,STARLINK-4511,PAYLOAD,2023-03-09 16:50:01,15.0886205,0.0001291,53.2153,314.2036,78.6817,281.432,0.001904,0.00030163,0.0,0 STARLINK-4511,1 53527U 22101A   23068.70140541  .00030163  00000-0  19040-2 0  9998,2 53527  53.2153 314.2036 0001291  78.6817 281.4320 15.08862050 30707,6917.813,95.436,540.571,538.785,0.0
53527.0,STARLINK-4511,PAYLOAD,2023-03-09 21:36:10,15.08859168,0.0001297,53.2171,313.3125,79.481,280.6328,0.0010442,0.00016378,0.0,0 STARLINK-4511,1 53527U 22101A   23068.90012281  .00016378  00000-0  10442-2 0  9998,2 53527  53.2171 313.3125 0001297  79.4810 280.6328 15.08859168 30732,6917.822,95.436,540.584,538.79,0.0
53527.0,STARLINK-4511,PAYLOAD,2023-03-09 23:11:33,15.08862682,0.0001096,53.2162,313.0143,62.0732,298.0371,0.0017846,0.00028246,0.0,0 STARLINK-4511,1 53527U 22101A   23068.96636211  .00028246  00000-0  17846-2 0  9991,2 53527  53.2162 313.0143 0001096  62.0732 298.0371 15.08862682 30744,6917.811,95.436,540.434,538.918,0.0
53527.0,STARLINK-4511,PAYLOAD,2023-03-10 08:43:52,15.0885359,0.0001155,53.2155,311.2288,62.6928,297.4182,0.00052293,8.047e-05,0.0,0 STARLINK-4511,1 53527U 22101A   23069.36380117  .00008047  00000-0  52293-3 0  9990,2 53527  53.2155 311.2288 0001155  62.6928 297.4182 15.08853590 30803,6917.839,95.437,540.503,538.905,0.0
53527.0,STARLINK-4511,PAYLOAD,2023-03-10 19:51:34,15.08832475,0.0001227,53.2173,309.1498,95.7516,264.3616,-6.781e-05,-1.367e-05,0.0,0 STARLINK-4511,1 53527U 22101A   23069.82748675 -.00001367  00000-0 -67810-4 0  9990,2 53527  53.2173 309.1498 0001227  95.7516 264.3616 15.08832475 30873,6917.903,95.438,540.617,538.92,0.0
53527.0,STARLINK-4511,PAYLOAD,2023-03-10 23:02:21,15.08841183,0.0001235,53.2178,308.5568,109.5686,250.544,0.00043297,6.61e-05,0.0,0 STARLINK-4511,1 53527U 22101A   23069.95996594  .00006610  00000-0  43297-3 0  9995,2 53527  53.2178 308.5568 0001235 109.5686 250.5440 15.08841183 30890,6917.877,95.437,540.596,538.887,0.0
53527.0,STARLINK-4511,PAYLOAD,2023-03-11 02:13:07,15.08842734,0.0001077,53.2165,307.9599,101.6819,258.4294,0.0019628,0.0003109,0.0,0 STARLINK-4511,1 53527U 22101A   23070.09244822  .00031090  00000-0  19628-2 0  9992,2 53527  53.2165 307.9599 0001077 101.6819 258.4294 15.08842734 30918,6917.872,95.437,540.482,538.992,0.0
53527.0,STARLINK-4511,PAYLOAD,2023-03-12 02:03:54,15.088518,0.000121,53.2148,303.4972,90.1648,269.9483,0.00087922,0.00013737,0.0,0 STARLINK-4511,1 53527U 22101A   23071.08604940  .00013737  00000-0  87922-3 0  9994,2 53527  53.2148 303.4972 0001210  90.1648 269.9483 15.08851800 31064,6917.844,95.437,540.546,538.872,0.0
53527.0,STARLINK-4511,PAYLOAD,2023-03-13 00:19:18,15.0885295,0.0002185,53.2153,299.3335,71.9201,288.2029,0.00094372,0.00014769,0.0,0 STARLINK-4511,1 53527U 22101A   23072.01341302  .00014769  00000-0  94372-3 0  9991,2 53527  53.2153 299.3335 0002185  71.9201 288.2029 15.08852950 31203,6917.841,95.437,541.217,538.194,0.0
53527.0,STARLINK-4511,PAYLOAD,2023-03-13 22:34:44,15.08814715,0.000113,53.2164,295.1701,102.0761,258.0358,0.00054299,8.358e-05,0.0,0 STARLINK-4511,1 53527U 22101A   23072.94078875  .00008358  00000-0  54299-3 0  9996,2 53527  53.2164 295.1701 0001130 102.0761 258.0358 15.08814715 31344,6917.958,95.439,540.604,539.041,0.0
53527.0,STARLINK-4511,PAYLOAD,2023-03-14 00:10:07,15.0881715,0.0001204,53.2166,294.8718,114.1193,245.9925,0.00064356,9.963e-05,0.0,0 STARLINK-4511,1 53527U 22101A   23073.00702894  .00009963  00000-0  64356-3 0  9997,2 53527  53.2166 294.8718 0001204 114.1193 245.9925 15.08817150 31357,6917.95,95.439,540.648,538.982,0.0
53527.0,STARLINK-4511,PAYLOAD,2023-03-14 14:28:35,15.08859914,0.0001006,53.2179,292.1935,125.6117,234.4969,0.0016224,0.00025641,0.0,0 STARLINK-4511,1 53527U 22101A   23073.60318515  .00025641  00000-0  16224-2 0  9997,2 53527  53.2179 292.1935 0001006 125.6117 234.4969 15.08859914 31441,6917.82,95.436,540.38,538.989,0.0
53527.0,STARLINK-4511,PAYLOAD,2023-03-14 20:50:07,15.08886019,0.0001008,53.2166,291.0076,101.6573,258.4532,0.0020392,0.00032356,0.0,0 STARLINK-4511,1 53527U 22101A   23073.86813806  .00032356  00000-0  20392-2 0  9990,2 53527  53.2166 291.0076 0001008 101.6573 258.4532 15.08886019 31485,6917.74,95.435,540.302,538.907,0.0
53527.0,STARLINK-4511,PAYLOAD,2023-03-15 00:00:52,15.08896963,0.0001089,53.2162,290.4134,95.7182,264.3934,0.0021562,0.00034249,0.0,0 STARLINK-4511,1 53527U 22101A   23074.00061339  .00034249  00000-0  21562-2 0  9996,2 53527  53.2162 290.4134 0001089  95.7182 264.3934 15.08896963 31501,6917.706,95.434,540.325,538.818,0.0
53527.0,STARLINK-4511,PAYLOAD,2023-03-15 20:40:53,15.08876174,7.32e-05,53.2172,286.5481,90.9676,269.14,0.0018378,0.00029111,0.0,0 STARLINK-4511,1 53527U 22101A   23074.86172535  .00029111  00000-0  18378-2 0  9994,2 53527  53.2172 286.5481 0000732  90.9676 269.1400 15.08876174 31639,6917.77,95.435,540.141,539.128,0.0
53527.0,STARLINK-4511,PAYLOAD,2023-03-16 14:10:07,15.08828589,0.0001313,53.2159,283.2771,78.2144,281.8996,0.0017216,0.00027209,0.0,0 STARLINK-4511,1 53527U 22101A   23075.59036989  .00027209  00000-0  17216-2 0  9993,2 53527  53.2159 283.2771 0001313  78.2144 281.8996 15.08828589 31745,6917.915,95.438,540.689,538.872,0.0
53527.0,STARLINK-4511,PAYLOAD,2023-03-16 20:31:40,15.08832615,5e-05,53.216,282.0879,111.4205,248.684,0.00074458,0.0001158,0.0,0 STARLINK-4511,1 53527U 22101A   23075.85532986  .00011580  00000-0  74458-3 0  9997,2 53527  53.2160 282.0879 0000500 111.4205 248.6840 15.08832615 31786,6917.903,95.438,540.114,539.422,0.0
53527.0,STARLINK-4511,PAYLOAD,2023-03-17 06:03:59,15.08830737,7.2e-05,53.2154,280.303,60.7153,299.3911,0.00030219,4.524e-05,0.0,0 STARLINK-4511,1 53527U 22101A   23076.25277411  .00004524  00000-0  30219-3 0  9998,2 53527  53.2154 280.3030 0000720  60.7153 299.3911 15.08830737 31843,6917.909,95.438,540.272,539.276,0.0
53527.0,STARLINK-4511,PAYLOAD,2023-03-17 20:22:28,15.08838663,7.43e-05,53.2146,277.6277,50.7456,309.3602,0.00036822,5.577e-05,0.0,0 STARLINK-4511,1 53527U 22101A   23076.84893555  .00005577  00000-0  36822-3 0  9991,2 53527  53.2146 277.6277 0000743  50.7456 309.3602 15.08838663 31931,6917.884,95.438,540.263,539.235,0.0
53527.0,STARLINK-4511,PAYLOAD,2023-03-18 13:51:42,15.08839048,9.94e-05,53.2141,274.3558,56.7388,303.3699,0.0002029,2.943e-05,0.0,0 STARLINK-4511,1 53527U 22101A   23077.57757686  .00002943  00000-0  20290-3 0  9992,2 53527  53.2141 274.3558 0000994  56.7388 303.3699 15.08839048 32041,6917.883,95.438,540.436,539.061,0.0
53527.0,STARLINK-4511,PAYLOAD,2023-03-18 20:13:14,15.08844815,9.09e-05,53.2144,273.1668,57.7719,302.3361,0.00028484,4.249e-05,0.0,0 STARLINK-4511,1 53527U 22101A   23077.84253447  .00004249  00000-0  28484-3 0  9992,2 53527  53.2144 273.1668 0000909  57.7719 302.3361 15.08844815 32085,6917.866,95.437,540.36,539.102,0.0
53527.0,STARLINK-4511,PAYLOAD,2023-03-19 00:59:24,15.08852354,0.0001025,53.2151,272.2743,59.1261,300.9832,0.00037858,5.744e-05,0.0,0 STARLINK-4511,1 53527U 22101A   23078.04125134  .00005744  00000-0  37858-3 0  9992,2 53527  53.2151 272.2743 0001025  59.1261 300.9832 15.08852354 32113,6917.843,95.437,540.417,538.999,0.0
53527.0,STARLINK-4511,PAYLOAD,2023-03-19 12:07:06,15.08845168,0.0001472,53.2144,270.1915,68.551,291.5639,0.00013611,1.879e-05,0.0,0 STARLINK-4511,1 53527U 22101A   23078.50493435  .00001879  00000-0  13611-3 0  9991,2 53527  53.2144 270.1915 0001472  68.5510 291.5639 15.08845168 32182,6917.865,95.437,540.748,538.711,0.0
53527.0,STARLINK-4511,PAYLOAD,2023-03-19 20:04:01,15.0884992,9.27e-05,53.2156,268.7065,66.8893,293.2197,0.00026513,3.935e-05,0.0,0 STARLINK-4511,1 53527U 22101A   23078.83613127  .00003935  00000-0  26513-3 0  9999,2 53527  53.2156 268.7065 0000927  66.8893 293.2197 15.08849920 32237,6917.85,95.437,540.356,539.074,0.0
53527.0,STARLINK-4511,PAYLOAD,2023-03-20 11:57:53,15.08842664,9.82e-05,53.2149,265.7322,75.7355,284.3746,0.00014951,2.093e-05,0.0,0 STARLINK-4511,1 53527U 22101A   23079.49853263  .00002093  00000-0  14951-3 0  9996,2 53527  53.2149 265.7322 0000982  75.7355 284.3746 15.08842664 32335,6917.872,95.437,540.417,539.058,0.0
53527.0,STARLINK-4511,PAYLOAD,2023-03-20 18:19:25,15.08846402,9.41e-05,53.2151,264.5424,73.5543,286.5553,0.00032987,4.967e-05,0.0,0 STARLINK-4511,1 53527U 22101A   23079.76349213  .00004967  00000-0  32987-3 0  9992,2 53527  53.2151 264.5424 0000941  73.5543 286.5553 15.08846402 32376,6917.861,95.437,540.377,539.075,0.0
53527.0,STARLINK-4511,PAYLOAD,2023-03-21 11:48:40,15.08840448,0.0001044,53.2147,261.2711,83.6384,276.4727,0.00039576,6.016e-05,0.0,0 STARLINK-4511,1 53527U 22101A   23080.49213440  .00006016  00000-0  39576-3 0  9994,2 53527  53.2147 261.2711 0001044  83.6384 276.4727 15.08840448 32481,6917.879,95.438,540.466,539.022,0.0
53527.0,STARLINK-4511,PAYLOAD,2023-03-21 18:10:12,15.08846566,0.0001074,53.2149,260.082,79.393,280.7183,0.00054878,8.458e-05,0.0,0 STARLINK-4511,1 53527U 22101A   23080.75709388  .00008458  00000-0  54878-3 0  9998,2 53527  53.2149 260.0820 0001074  79.3930 280.7183 15.08846566 32529,6917.86,95.437,540.468,538.982,0.0
53527.0,STARLINK-4511,PAYLOAD,2023-03-22 11:39:27,15.08841361,0.0001475,53.2147,256.8118,72.4649,287.6504,0.00030153,4.514e-05,0.0,0 STARLINK-4511,1 53527U 22101A   23081.48573689  .00004514  00000-0  30153-3 0  9991,2 53527  53.2147 256.8118 0001475  72.4649 287.6504 15.08841361 32639,6917.876,95.437,540.762,538.721,0.0
53527.0,STARLINK-4511,PAYLOAD,2023-03-22 18:00:59,15.08846511,0.0001057,53.2157,255.6198,97.1585,262.9527,0.00022663,3.321e-05,0.0,0 STARLINK-4511,1 53527U 22101A   23081.75069331  .00003321  00000-0  22663-3 0  9997,2 53527  53.2157 255.6198 0001057  97.1585 262.9527 15.08846511 32671,6917.86,95.437,540.457,538.994,0.0
